start=new Date('2023-03-05T00:00:00.000Z').valueOf();
sats=[{"LAUNCH_DATE":"2022-07-24","APOAPSIS":"540.758","ARG_OF_PERICENTER":"74.2699","RCS_SIZE":"LARGE","FILE":"3851350","MEAN_MOTION":"15.08845500","RA_OF_ASC_NODE":"96.2090","MEAN_ELEMENT_THEORY":"SGP4","INCLINATION":"53.2136","CLASSIFICATION_TYPE":"U","REV_AT_EPOCH":"3488","TLE_LINE2":"2 53249  53.2136  96.2090 0001488  74.2699 285.8457 15.08845500 34887","COUNTRY_CODE":"US","GP_ID":"227510068","EPOCH":"2023-03-04T19:11:28.301568","SITE":"AFETR","ECCENTRICITY":"0.00014880","OBJECT_NAME":"STARLINK-4128","MEAN_MOTION_DDOT":"0.0000000000000","OBJECT_ID":"2022-086H","BSTAR":"0.00119650000000","ELEMENT_SET_NO":"999","CENTER_NAME":"EARTH","SEMIMAJOR_AXIS":"6917.864","REF_FRAME":"TEME","OBJECT_TYPE":"PAYLOAD","TIME_SYSTEM":"UTC","PERIOD":"95.437","DECAY_DATE":null,"EPHEMERIS_TYPE":"0","MEAN_ANOMALY":"285.8457","MEAN_MOTION_DOT":"0.00018808","NORAD_CAT_ID":"53249","PERIAPSIS":"538.699","TLE_LINE1":"1 53249U 22086H   23063.79963312  .00018808  00000-0  11965-2 0  9994"},{"ARG_OF_PERICENTER":"108.2248","RCS_SIZE":"LARGE","FILE":"3851350","MEAN_MOTION":"15.08848379","RA_OF_ASC_NODE":"96.1911","LAUNCH_DATE":"2022-07-24","APOAPSIS":"540.555","COUNTRY_CODE":"US","GP_ID":"227510319","EPOCH":"2023-03-04T19:16:45.710112","SITE":"AFETR","ECCENTRICITY":"0.00012080","OBJECT_NAME":"STARLINK-4059","MEAN_ELEMENT_THEORY":"SGP4","INCLINATION":"53.2148","CLASSIFICATION_TYPE":"U","TLE_LINE2":"2 53250  53.2148  96.1911 0001208 108.2248 251.8875 15.08848379 34885","REV_AT_EPOCH":"3488","CENTER_NAME":"EARTH","SEMIMAJOR_AXIS":"6917.855","REF_FRAME":"TEME","OBJECT_TYPE":"PAYLOAD","TIME_SYSTEM":"UTC","MEAN_MOTION_DDOT":"0.0000000000000","OBJECT_ID":"2022-086J","BSTAR":"0.00060359000000","ELEMENT_SET_NO":"999","MEAN_MOTION_DOT":"0.00009333","NORAD_CAT_ID":"53250","PERIAPSIS":"538.884","TLE_LINE1":"1 53250U 22086J   23063.80330683  .00009333  00000-0  60359-3 0  9992","EPHEMERIS_TYPE":"0","DECAY_DATE":null,"PERIOD":"95.437","MEAN_ANOMALY":"251.8875"},{"REF_FRAME":"TEME","SEMIMAJOR_AXIS":"6917.850","CENTER_NAME":"EARTH","TIME_SYSTEM":"UTC","OBJECT_TYPE":"PAYLOAD","OBJECT_ID":"2022-086K","MEAN_MOTION_DDOT":"0.0000000000000","ELEMENT_SET_NO":"999","BSTAR":"0.00046800000000","MEAN_MOTION_DOT":"0.00007170","TLE_LINE1":"1 53251U 22086K   23063.79227269  .00007170  00000-0  46800-3 0  9998","PERIAPSIS":"538.649","NORAD_CAT_ID":"53251","MEAN_ANOMALY":"281.1937","DECAY_DATE":null,"PERIOD":"95.437","EPHEMERIS_TYPE":"0","FILE":"3851350","MEAN_MOTION":"15.08850070","RCS_SIZE":"LARGE","ARG_OF_PERICENTER":"78.9228","RA_OF_ASC_NODE":"96.2383","APOAPSIS":"540.781","LAUNCH_DATE":"2022-07-24","ECCENTRICITY":"0.00015410","SITE":"AFETR","EPOCH":"2023-03-04T19:00:52.360416","GP_ID":"227510057","COUNTRY_CODE":"US","OBJECT_NAME":"STARLINK-4129","MEAN_ELEMENT_THEORY":"SGP4","TLE_LINE2":"2 53251  53.2155  96.2383 0001541  78.9228 281.1937 15.08850070 34863","REV_AT_EPOCH":"3486","CLASSIFICATION_TYPE":"U","INCLINATION":"53.2155"},{"TIME_SYSTEM":"UTC","OBJECT_TYPE":"PAYLOAD","REF_FRAME":"TEME","CENTER_NAME":"EARTH","SEMIMAJOR_AXIS":"6913.045","ELEMENT_SET_NO":"999","BSTAR":"0.00443690000000","OBJECT_ID":"2022-086L","MEAN_MOTION_DDOT":"0.0000000000000","TLE_LINE1":"1 53252U 22086L   23064.00001157  .00074236  00000-0  44369-2 0  9994","PERIAPSIS":"533.939","NORAD_CAT_ID":"53252","MEAN_MOTION_DOT":"0.00074236","MEAN_ANOMALY":"277.6157","EPHEMERIS_TYPE":"0","DECAY_DATE":null,"PERIOD":"95.338","RA_OF_ASC_NODE":"95.2825","MEAN_MOTION":"15.10423332","FILE":"3851257","ARG_OF_PERICENTER":"99.9069","RCS_SIZE":"LARGE","APOAPSIS":"535.881","LAUNCH_DATE":"2022-07-24","OBJECT_NAME":"STARLINK-4132","EPOCH":"2023-03-05T00:00:00.999648","ECCENTRICITY":"0.00014040","SITE":"AFETR","COUNTRY_CODE":"US","GP_ID":"227484040","CLASSIFICATION_TYPE":"U","REV_AT_EPOCH":"3471","TLE_LINE2":"2 53252  53.2129  95.2825 0001404  99.9069 277.6157 15.10423332 34717","INCLINATION":"53.2129","MEAN_ELEMENT_THEORY":"SGP4"},{"NORAD_CAT_ID":"53253","PERIAPSIS":"538.145","TLE_LINE1":"1 53253U 22086M   23063.78859569  .00009702  00000-0  62693-3 0  9994","MEAN_MOTION_DOT":"0.00009702","PERIOD":"95.438","DECAY_DATE":null,"EPHEMERIS_TYPE":"0","MEAN_ANOMALY":"279.5426","OBJECT_TYPE":"PAYLOAD","TIME_SYSTEM":"UTC","CENTER_NAME":"EARTH","SEMIMAJOR_AXIS":"6917.894","REF_FRAME":"TEME","BSTAR":"0.00062693000000","ELEMENT_SET_NO":"999","MEAN_MOTION_DDOT":"0.0000000000000","OBJECT_ID":"2022-086M","OBJECT_NAME":"STARLINK-4133","COUNTRY_CODE":"US","GP_ID":"227509569","EPOCH":"2023-03-04T18:55:34.667616","SITE":"AFETR","ECCENTRICITY":"0.00023330","INCLINATION":"53.2164","CLASSIFICATION_TYPE":"U","REV_AT_EPOCH":"3486","TLE_LINE2":"2 53253  53.2164  96.2581 0002333  80.5830 279.5426 15.08835684 34861","MEAN_ELEMENT_THEORY":"SGP4","RA_OF_ASC_NODE":"96.2581","ARG_OF_PERICENTER":"80.5830","RCS_SIZE":"LARGE","FILE":"3851350","MEAN_MOTION":"15.08835684","LAUNCH_DATE":"2022-07-24","APOAPSIS":"541.373"},{"NORAD_CAT_ID":"53254","TLE_LINE1":"1 53254U 22086N   23063.79595520  .00018688  00000-0  11890-2 0  9995","PERIAPSIS":"538.523","MEAN_MOTION_DOT":"0.00018688","PERIOD":"95.437","DECAY_DATE":null,"EPHEMERIS_TYPE":"0","MEAN_ANOMALY":"285.5607","OBJECT_TYPE":"PAYLOAD","TIME_SYSTEM":"UTC","CENTER_NAME":"EARTH","SEMIMAJOR_AXIS":"6917.865","REF_FRAME":"TEME","BSTAR":"0.00118900000000","ELEMENT_SET_NO":"999","MEAN_MOTION_DDOT":"0.0000000000000","OBJECT_ID":"2022-086N","OBJECT_NAME":"STARLINK-4134","COUNTRY_CODE":"US","GP_ID":"227509820","EPOCH":"2023-03-04T19:06:10.529280","SITE":"AFETR","ECCENTRICITY":"0.00017450","INCLINATION":"53.2152","CLASSIFICATION_TYPE":"U","TLE_LINE2":"2 53254  53.2152  96.2246 0001745  74.5578 285.5607 15.08844969 34881","REV_AT_EPOCH":"3488","MEAN_ELEMENT_THEORY":"SGP4","RA_OF_ASC_NODE":"96.2246","ARG_OF_PERICENTER":"74.5578","RCS_SIZE":"LARGE","MEAN_MOTION":"15.08844969","FILE":"3851350","LAUNCH_DATE":"2022-07-24","APOAPSIS":"540.937"},{"SEMIMAJOR_AXIS":"6917.811","CENTER_NAME":"EARTH","REF_FRAME":"TEME","OBJECT_TYPE":"PAYLOAD","TIME_SYSTEM":"UTC","MEAN_MOTION_DDOT":"0.0000000000000","OBJECT_ID":"2022-086P","BSTAR":"0.00136810000000","ELEMENT_SET_NO":"999","MEAN_MOTION_DOT":"0.00021566","NORAD_CAT_ID":"53255","TLE_LINE1":"1 53255U 22086P   23063.58250645  .00021566  00000-0  13681-2 0  9998","PERIAPSIS":"538.632","DECAY_DATE":null,"EPHEMERIS_TYPE":"0","PERIOD":"95.436","MEAN_ANOMALY":"256.9127","RCS_SIZE":"LARGE","ARG_OF_PERICENTER":"103.2034","FILE":"3851350","MEAN_MOTION":"15.08862613","RA_OF_ASC_NODE":"97.1831","LAUNCH_DATE":"2022-07-24","APOAPSIS":"540.720","GP_ID":"227510557","COUNTRY_CODE":"US","SITE":"AFETR","ECCENTRICITY":"0.00015090","EPOCH":"2023-03-04T13:58:48.557280","OBJECT_NAME":"STARLINK-4142","MEAN_ELEMENT_THEORY":"SGP4","INCLINATION":"53.2157","REV_AT_EPOCH":"3483","TLE_LINE2":"2 53255  53.2157  97.1831 0001509 103.2034 256.9127 15.08862613 34832","CLASSIFICATION_TYPE":"U"},{"NORAD_CAT_ID":"53256","PERIAPSIS":"538.788","TLE_LINE1":"1 53256U 22086Q   23063.78491263  .00001516  00000-0  11330-3 0  9997","MEAN_MOTION_DOT":"0.00001516","DECAY_DATE":null,"EPHEMERIS_TYPE":"0","PERIOD":"95.437","MEAN_ANOMALY":"278.9107","OBJECT_TYPE":"PAYLOAD","TIME_SYSTEM":"UTC","CENTER_NAME":"EARTH","SEMIMAJOR_AXIS":"6917.874","REF_FRAME":"TEME","BSTAR":"0.00011330000000","ELEMENT_SET_NO":"999","MEAN_MOTION_DDOT":"0.0000000000000","OBJECT_ID":"2022-086Q","OBJECT_NAME":"STARLINK-4147","COUNTRY_CODE":"US","GP_ID":"227509319","EPOCH":"2023-03-04T18:50:16.451232","SITE":"AFETR","ECCENTRICITY":"0.00013740","INCLINATION":"53.2145","CLASSIFICATION_TYPE":"U","TLE_LINE2":"2 53256  53.2145  96.2709 0001374  81.2040 278.9107 15.08842191 34860","REV_AT_EPOCH":"3486","MEAN_ELEMENT_THEORY":"SGP4","RA_OF_ASC_NODE":"96.2709","ARG_OF_PERICENTER":"81.2040","RCS_SIZE":"LARGE","FILE":"3851350","MEAN_MOTION":"15.08842191","LAUNCH_DATE":"2022-07-24","APOAPSIS":"540.689"},{"CLASSIFICATION_TYPE":"U","TLE_LINE2":"2 53257  53.2182  97.2279 0001379 115.3199 244.7936 15.08857594 34835","REV_AT_EPOCH":"3483","INCLINATION":"53.2182","MEAN_ELEMENT_THEORY":"SGP4","OBJECT_NAME":"STARLINK-4144","EPOCH":"2023-03-04T13:42:54.592416","SITE":"AFETR","ECCENTRICITY":"0.00013790","COUNTRY_CODE":"US","GP_ID":"227510069","APOAPSIS":"540.646","LAUNCH_DATE":"2022-07-24","RA_OF_ASC_NODE":"97.2279","FILE":"3851350","MEAN_MOTION":"15.08857594","ARG_OF_PERICENTER":"115.3199","RCS_SIZE":"LARGE","MEAN_ANOMALY":"244.7936","EPHEMERIS_TYPE":"0","DECAY_DATE":null,"PERIOD":"95.436","PERIAPSIS":"538.738","TLE_LINE1":"1 53257U 22086R   23063.57146519  .00003717  00000-0  25139-3 0  9993","NORAD_CAT_ID":"53257","MEAN_MOTION_DOT":"0.00003717","ELEMENT_SET_NO":"999","BSTAR":"0.00025139000000","OBJECT_ID":"2022-086R","MEAN_MOTION_DDOT":"0.0000000000000","TIME_SYSTEM":"UTC","OBJECT_TYPE":"PAYLOAD","REF_FRAME":"TEME","CENTER_NAME":"EARTH","SEMIMAJOR_AXIS":"6917.827"},{"MEAN_ELEMENT_THEORY":"SGP4","CLASSIFICATION_TYPE":"U","TLE_LINE2":"2 53258  53.2157  97.4977 0001155  88.7488 271.3636 15.08861348 34825","REV_AT_EPOCH":"3482","INCLINATION":"53.2157","EPOCH":"2023-03-04T12:18:07.668000","SITE":"AFETR","ECCENTRICITY":"0.00011550","COUNTRY_CODE":"US","GP_ID":"227476551","OBJECT_NAME":"STARLINK-4127","APOAPSIS":"540.479","LAUNCH_DATE":"2022-07-24","FILE":"3851072","MEAN_MOTION":"15.08861348","ARG_OF_PERICENTER":"88.7488","RCS_SIZE":"LARGE","RA_OF_ASC_NODE":"97.4977","MEAN_ANOMALY":"271.3636","PERIOD":"95.436","DECAY_DATE":null,"EPHEMERIS_TYPE":"0","MEAN_MOTION_DOT":"0.00019957","PERIAPSIS":"538.881","TLE_LINE1":"1 53258U 22086S   23063.51258875  .00019957  00000-0  12677-2 0  9992","NORAD_CAT_ID":"53258","OBJECT_ID":"2022-086S","MEAN_MOTION_DDOT":"0.0000000000000","ELEMENT_SET_NO":"999","BSTAR":"0.00126770000000","REF_FRAME":"TEME","CENTER_NAME":"EARTH","SEMIMAJOR_AXIS":"6917.815","TIME_SYSTEM":"UTC","OBJECT_TYPE":"PAYLOAD"}];
